{"type": "FeatureCollection", "features": [ {"type": "Feature", "properties": {"norad_id": 35469, "name": "COSMOS 2251 DEB", "group": "cosmos-2251-debris", "lat": -53.2327780465302, "lon": -16.40948596857679, "alt_km": 776.9514231023295, "timestamp": "2025-12-22T04:03:39.564659+00:00", "meta": {"OBJECT_NAME": "COSMOS 2251 DEB", "OBJECT_ID": "1993-036ALP", "EPOCH": "2025-12-20T07:36:40.266144", "MEAN_MOTION": 14.4982565, "ECCENTRICITY": 0.00765645, "INCLINATION": 74.0168, "RA_OF_ASC_NODE": 9.6263, "ARG_OF_PERICENTER": 163.1432, "MEAN_ANOMALY": 197.23, "EPHEMERIS_TYPE": 0, "CLASSIFICATION_TYPE": "U", "NORAD_CAT_ID": 35469, "ELEMENT_SET_NO": 999, "REV_AT_EPOCH": 88221, "BSTAR": 6.7527967e-05, "MEAN_MOTION_DOT": 2.41e-06, "MEAN_MOTION_DDOT": 0}, "tle": {"line1": "1 35469U 93036ALP 25354.31713271  .00000241  00000+0  67528-4 0  9990", "line2": "2 35469  74.0168   9.6263 0076564 163.1432 197.2300 14.49825650882216"}}, "geometry": {"type": "Point", "coordinates": [-16.40948596857679, -53.2327780465302]}}, {"type": "Feature", "properties": {"norad_id": 35475, "name": "COSMOS 2251 DEB", "group": "cosmos-2251-debris", "lat": 60.96209642323972, "lon": -63.73857279970575, "alt_km": 658.783732845377, "timestamp": "2025-12-22T04:03:39.564669+00:00", "meta": {"OBJECT_NAME": "COSMOS 2251 DEB", "OBJECT_ID": "1993-036ALV", "EPOCH": "2025-12-20T04:10:12.186624", "MEAN_MOTION": 14.69875936, "ECCENTRICITY": 0.00202744, "INCLINATION": 74.0213, "RA_OF_ASC_NODE": 151.2034, "ARG_OF_PERICENTER": 223.9843, "MEAN_ANOMALY": 135.9716, "EPHEMERIS_TYPE": 0, "CLASSIFICATION_TYPE": "U", "NORAD_CAT_ID": 35475, "ELEMENT_SET_NO": 999, "REV_AT_EPOCH": 65726, "BSTAR": 0.0012274408, "MEAN_MOTION_DOT": 7.339e-05, "MEAN_MOTION_DDOT": 0}, "tle": {"line1": "1 35475U 93036ALV 25354.17375216  .00007339  00000+0  12274-2 0  9995", "line2": "2 35475  74.0213 151.2034 0020274 223.9843 135.9716 14.69875936657261"}}, "geometry": {"type": "Point", "coordinates": [-63.73857279970575, 60.96209642323972]}}, {"type": "Feature", "properties": {"norad_id": 35476, "name": "COSMOS 2251 DEB", "group": "cosmos-2251-debris", "lat": 16.59425393280183, "lon": -142.51083864544339, "alt_km": 652.8034686880565, "timestamp": "2025-12-22T04:03:39.564679+00:00", "meta": {"OBJECT_NAME": "COSMOS 2251 DEB", "OBJECT_ID": "1993-036ALW", "EPOCH": "2025-12-20T04:26:15.503424", "MEAN_MOTION": 14.75816221, "ECCENTRICITY": 0.0018084, "INCLINATION": 73.9779, "RA_OF_ASC_NODE": 46.2965, "ARG_OF_PERICENTER": 24.5417, "MEAN_ANOMALY": 39.7285, "EPHEMERIS_TYPE": 0, "CLASSIFICATION_TYPE": "U", "NORAD_CAT_ID": 35476, "ELEMENT_SET_NO": 999, "REV_AT_EPOCH": 87997, "BSTAR": 0.00092006008, "MEAN_MOTION_DOT": 6.297e-05, "MEAN_MOTION_DDOT": 0}, "tle": {"line1": "1 35476U 93036ALW 25354.18490166  .00006297  00000+0  92006-3 0  9993", "line2": "2 35476  73.9779  46.2965 0018084  24.5417  39.7285 14.75816221879976"}}, "geometry": {"type": "Point", "coordinates": [-142.51083864544339, 16.59425393280183]}}, {"type": "Feature", "properties": {"norad_id": 35580, "name": "COSMOS 2251 DEB", "group": "cosmos-2251-debris", "lat": 22.95412892101883, "lon": 169.712779588243, "alt_km": 1109.2479410020223, "timestamp": "2025-12-22T04:03:39.564689+00:00", "meta": {"OBJECT_NAME": "COSMOS 2251 DEB", "OBJECT_ID": "1993-036ALX", "EPOCH": "2025-12-21T17:31:49.222848", "MEAN_MOTION": 13.83913818, "ECCENTRICITY": 0.0280794, "INCLINATION": 73.9009, "RA_OF_ASC_NODE": 163.4331, "ARG_OF_PERICENTER": 166.9266, "MEAN_ANOMALY": 193.9339, "EPHEMERIS_TYPE": 0, "CLASSIFICATION_TYPE": "U", "NORAD_CAT_ID": 35580, "ELEMENT_SET_NO": 999, "REV_AT_EPOCH": 62381, "BSTAR": 0.0017137, "MEAN_MOTION_DOT": 2.557e-05, "MEAN_MOTION_DDOT": 0}, "tle": {"line1": "1 35580U 93036ALX 25355.73043082  .00002557  00000+0  17137-2 0  9998", "line2": "2 35580  73.9009 163.4331 0280794 166.9266 193.9339 13.83913818623810"}}, "geometry": {"type": "Point", "coordinates": [169.712779588243, 22.95412892101883]}}, {"type": "Feature", "properties": {"norad_id": 35583, "name": "COSMOS 2251 DEB", "group": "cosmos-2251-debris", "lat": -11.34979891710563, "lon": 20.054060313115325, "alt_km": 800.6973642341127, "timestamp": "2025-12-22T04:03:39.564699+00:00", "meta": {"OBJECT_NAME": "COSMOS 2251 DEB", "OBJECT_ID": "1993-036AMA", "EPOCH": "2025-12-21T20:00:30.638880", "MEAN_MOTION": 13.55350391, "ECCENTRICITY": 0.0385078, "INCLINATION": 73.9159, "RA_OF_ASC_NODE": 197.2778, "ARG_OF_PERICENTER": 219.9556, "MEAN_ANOMALY": 137.2632, "EPHEMERIS_TYPE": 0, "CLASSIFICATION_TYPE": "U", "NORAD_CAT_ID": 35583, "ELEMENT_SET_NO": 999, "REV_AT_EPOCH": 82535, "BSTAR": 0.00068728, "MEAN_MOTION_DOT": 7.43e-06, "MEAN_MOTION_DDOT": 0}, "tle": {"line1": "1 35583U 93036AMA 25355.83368795  .00000743  00000+0  68728-3 0  9991", "line2": "2 35583  73.9159 197.2778 0385078 219.9556 137.2632 13.55350391825351"}}, "geometry": {"type": "Point", "coordinates": [20.054060313115325, -11.34979891710563]}}, {"type": "Feature", "properties": {"norad_id": 35585, "name": "COSMOS 2251 DEB", "group": "cosmos-2251-debris", "lat": 70.3118378170286, "lon": 99.21599458317677, "alt_km": 1149.532501481357, "timestamp": "2025-12-22T04:03:39.564710+00:00", "meta": {"OBJECT_NAME": "COSMOS 2251 DEB", "OBJECT_ID": "1993-036AMC", "EPOCH": "2025-12-21T09:07:18.442848", "MEAN_MOTION": 13.75269672, "ECCENTRICITY": 0.03103986, "INCLINATION": 73.9717, "RA_OF_ASC_NODE": 333.9847, "ARG_OF_PERICENTER": 244.5384, "MEAN_ANOMALY": 273.7703, "EPHEMERIS_TYPE": 0, "CLASSIFICATION_TYPE": "U", "NORAD_CAT_ID": 35585, "ELEMENT_SET_NO": 999, "REV_AT_EPOCH": 64182, "BSTAR": 0.00073727274, "MEAN_MOTION_DOT": 9.8e-06, "MEAN_MOTION_DDOT": 0}, "tle": {"line1": "1 35585U 93036AMC 25355.38007457  .00000980  00000+0  73727-3 0  9996", "line2": "2 35585  73.9717 333.9847 0310398 244.5384 273.7703 13.75269672641821"}}, "geometry": {"type": "Point", "coordinates": [99.21599458317677, 70.3118378170286]}}, {"type": "Feature", "properties": {"norad_id": 35586, "name": "COSMOS 2251 DEB", "group": "cosmos-2251-debris", "lat": -48.10801720630091, "lon": 126.00181839426358, "alt_km": 957.2952896698844, "timestamp": "2025-12-22T04:03:39.564719+00:00", "meta": {"OBJECT_NAME": "COSMOS 2251 DEB", "OBJECT_ID": "1993-036AMD", "EPOCH": "2025-12-18T14:35:36.885984", "MEAN_MOTION": 13.5208875, "ECCENTRICITY": 0.04044314, "INCLINATION": 74.0204, "RA_OF_ASC_NODE": 293.076, "ARG_OF_PERICENTER": 167.1463, "MEAN_ANOMALY": 11.7227, "EPHEMERIS_TYPE": 0, "CLASSIFICATION_TYPE": "U", "NORAD_CAT_ID": 35586, "ELEMENT_SET_NO": 999, "REV_AT_EPOCH": 60461, "BSTAR": 0.00023975249, "MEAN_MOTION_DOT": 2.44e-06, "MEAN_MOTION_DDOT": 0}, "tle": {"line1": "1 35586U 93036AMD 25352.60806581  .00000244  00000+0  23975-3 0  9997", "line2": "2 35586  74.0204 293.0760 0404431 167.1463  11.7227 13.52088750604613"}}, "geometry": {"type": "Point", "coordinates": [126.00181839426358, -48.10801720630091]}}, {"type": "Feature", "properties": {"norad_id": 35587, "name": "COSMOS 2251 DEB", "group": "cosmos-2251-debris", "lat": -5.090528456196721, "lon": -138.47362906908168, "alt_km": 604.2540022813846, "timestamp": "2025-12-22T04:03:39.564729+00:00", "meta": {"OBJECT_NAME": "COSMOS 2251 DEB", "OBJECT_ID": "1993-036AME", "EPOCH": "2025-12-19T21:22:17.268960", "MEAN_MOTION": 14.71544302, "ECCENTRICITY": 0.0102392, "INCLINATION": 74.0049, "RA_OF_ASC_NODE": 44.4984, "ARG_OF_PERICENTER": 230.5816, "MEAN_ANOMALY": 128.6259, "EPHEMERIS_TYPE": 0, "CLASSIFICATION_TYPE": "U", "NORAD_CAT_ID": 35587, "ELEMENT_SET_NO": 999, "REV_AT_EPOCH": 66451, "BSTAR": 0.00018067, "MEAN_MOTION_DOT": 1.181e-05, "MEAN_MOTION_DDOT": 0}, "tle": {"line1": "1 35587U 93036AME 25353.89047765  .00001181  00000+0  18067-3 0  9998", "line2": "2 35587  74.0049  44.4984 0102392 230.5816 128.6259 14.71544302664515"}}, "geometry": {"type": "Point", "coordinates": [-138.47362906908168, -5.090528456196721]}}, {"type": "Feature", "properties": {"norad_id": 35593, "name": "COSMOS 2251 DEB", "group": "cosmos-2251-debris", "lat": -18.312030457204415, "lon": 96.89598989799997, "alt_km": 793.1235704147648, "timestamp": "2025-12-22T04:03:39.564740+00:00", "meta": {"OBJECT_NAME": "COSMOS 2251 DEB", "OBJECT_ID": "1993-036AML", "EPOCH": "2025-12-20T03:57:49.308192", "MEAN_MOTION": 14.2562311, "ECCENTRICITY": 0.01050867, "INCLINATION": 74.0862, "RA_OF_ASC_NODE": 275.0836, "ARG_OF_PERICENTER": 279.9354, "MEAN_ANOMALY": 78.9945, "EPHEMERIS_TYPE": 0, "CLASSIFICATION_TYPE": "U", "NORAD_CAT_ID": 35593, "ELEMENT_SET_NO": 999, "REV_AT_EPOCH": 85171, "BSTAR": 0.0005338344, "MEAN_MOTION_DOT": 1.314e-05, "MEAN_MOTION_DDOT": 0}, "tle": {"line1": "1 35593U 93036AML 25354.16515403  .00001314  00000+0  53383-3 0  9993", "line2": "2 35593  74.0862 275.0836 0105086 279.9354  78.9945 14.25623110851713"}}, "geometry": {"type": "Point", "coordinates": [96.89598989799997, -18.312030457204415]}}, {"type": "Feature", "properties": {"norad_id": 35594, "name": "COSMOS 2251 DEB", "group": "cosmos-2251-debris", "lat": 70.27867284376832, "lon": -146.6944369218701, "alt_km": 599.3083312134431, "timestamp": "2025-12-22T04:03:39.564749+00:00", "meta": {"OBJECT_NAME": "COSMOS 2251 DEB", "OBJECT_ID": "1993-036AMM", "EPOCH": "2025-12-21T13:05:05.165088", "MEAN_MOTION": 14.8817141, "ECCENTRICITY": 0.0029279, "INCLINATION": 73.8068, "RA_OF_ASC_NODE": 88.7269, "ARG_OF_PERICENTER": 201.0189, "MEAN_ANOMALY": 158.9789, "EPHEMERIS_TYPE": 0, "CLASSIFICATION_TYPE": "U", "NORAD_CAT_ID": 35594, "ELEMENT_SET_NO": 999, "REV_AT_EPOCH": 88316, "BSTAR": 0.0013268, "MEAN_MOTION_DOT": 0.00012311, "MEAN_MOTION_DDOT": 0}, "tle": {"line1": "1 35594U 93036AMM 25355.54519867  .00012311  00000+0  13268-2 0  9991", "line2": "2 35594  73.8068  88.7269 0029279 201.0189 158.9789 14.88171410883168"}}, "geometry": {"type": "Point", "coordinates": [-146.6944369218701, 70.27867284376832]}}]}